{
"type": "FeatureCollection",
"name": "cells_with_points",
"crs": { "type": "name", "properties": { "name": "urn:ogc:def:crs:OGC:1.3:CRS84" } },
"features": [
{ "type": "Feature", "properties": { "site_code": "Z23" }, "geometry": { "type": "Polygon", "coordinates": [ [ [ -111.882795893, 33.2175360763 ], [ -111.867795893, 33.2175360763 ], [ -111.867795893, 33.232536076300001 ], [ -111.882795893, 33.232536076300001 ], [ -111.882795893, 33.2175360763 ] ] ] } },
{ "type": "Feature", "properties": { "site_code": "AE23" }, "geometry": { "type": "Polygon", "coordinates": [ [ [ -111.627795893, 33.2175360763 ], [ -111.612795893, 33.2175360763 ], [ -111.612795893, 33.232536076300001 ], [ -111.627795893, 33.232536076300001 ], [ -111.627795893, 33.2175360763 ] ] ] } },
{ "type": "Feature", "properties": { "site_code": "AF23" }, "geometry": { "type": "Polygon", "coordinates": [ [ [ -111.612795893, 33.2175360763 ], [ -111.597795893, 33.2175360763 ], [ -111.597795893, 33.232536076300001 ], [ -111.612795893, 33.232536076300001 ], [ -111.612795893, 33.2175360763 ] ] ] } },
{ "type": "Feature", "properties": { "site_code": "AF22" }, "geometry": { "type": "Polygon", "coordinates": [ [ [ -111.627795893, 33.247536076300001 ], [ -111.612795893, 33.247536076300001 ], [ -111.612795893, 33.262536076300002 ], [ -111.627795893, 33.262536076300002 ], [ -111.627795893, 33.247536076300001 ] ] ] } },
{ "type": "Feature", "properties": { "site_code": "AB22" }, "geometry": { "type": "Polygon", "coordinates": [ [ [ -111.807795893, 33.262536076300002 ], [ -111.792795893, 33.262536076300002 ], [ -111.792795893, 33.277536076300002 ], [ -111.807795893, 33.277536076300002 ], [ -111.807795893, 33.262536076300002 ] ] ] } },
{ "type": "Feature", "properties": { "site_code": "AC22" }, "geometry": { "type": "Polygon", "coordinates": [ [ [ -111.732795893, 33.262536076300002 ], [ -111.717795893, 33.262536076300002 ], [ -111.717795893, 33.277536076300002 ], [ -111.732795893, 33.277536076300002 ], [ -111.732795893, 33.262536076300002 ] ] ] } },
{ "type": "Feature", "properties": { "site_code": "AB21" }, "geometry": { "type": "Polygon", "coordinates": [ [ [ -111.777795893, 33.277536076300002 ], [ -111.762795893, 33.277536076300002 ], [ -111.762795893, 33.292536076300003 ], [ -111.777795893, 33.292536076300003 ], [ -111.777795893, 33.277536076300002 ] ] ] } },
{ "type": "Feature", "properties": { "site_code": "U21" }, "geometry": { "type": "Polygon", "coordinates": [ [ [ -112.077795893, 33.292536076300003 ], [ -112.062795893, 33.292536076300003 ], [ -112.062795893, 33.307536076300003 ], [ -112.077795893, 33.307536076300003 ], [ -112.077795893, 33.292536076300003 ] ] ] } },
{ "type": "Feature", "properties": { "site_code": "W21" }, "geometry": { "type": "Polygon", "coordinates": [ [ [ -111.987795893, 33.292536076300003 ], [ -111.972795893, 33.292536076300003 ], [ -111.972795893, 33.307536076300003 ], [ -111.987795893, 33.307536076300003 ], [ -111.987795893, 33.292536076300003 ] ] ] } },
{ "type": "Feature", "properties": { "site_code": "Y21" }, "geometry": { "type": "Polygon", "coordinates": [ [ [ -111.897795893, 33.292536076300003 ], [ -111.882795893, 33.292536076300003 ], [ -111.882795893, 33.307536076300003 ], [ -111.897795893, 33.307536076300003 ], [ -111.897795893, 33.292536076300003 ] ] ] } },
{ "type": "Feature", "properties": { "site_code": "AA21" }, "geometry": { "type": "Polygon", "coordinates": [ [ [ -111.837795893, 33.292536076300003 ], [ -111.822795893, 33.292536076300003 ], [ -111.822795893, 33.307536076300003 ], [ -111.837795893, 33.307536076300003 ], [ -111.837795893, 33.292536076300003 ] ] ] } },
{ "type": "Feature", "properties": { "site_code": "AC21" }, "geometry": { "type": "Polygon", "coordinates": [ [ [ -111.747795893, 33.292536076300003 ], [ -111.732795893, 33.292536076300003 ], [ -111.732795893, 33.307536076300003 ], [ -111.747795893, 33.307536076300003 ], [ -111.747795893, 33.292536076300003 ] ] ] } },
{ "type": "Feature", "properties": { "site_code": "AD21" }, "geometry": { "type": "Polygon", "coordinates": [ [ [ -111.702795893, 33.292536076300003 ], [ -111.687795893, 33.292536076300003 ], [ -111.687795893, 33.307536076300003 ], [ -111.702795893, 33.307536076300003 ], [ -111.702795893, 33.292536076300003 ] ] ] } },
{ "type": "Feature", "properties": { "site_code": "S20" }, "geometry": { "type": "Polygon", "coordinates": [ [ [ -112.167795893, 33.307536076300003 ], [ -112.152795893, 33.307536076300003 ], [ -112.152795893, 33.322536076299997 ], [ -112.167795893, 33.322536076299997 ], [ -112.167795893, 33.307536076300003 ] ] ] } },
{ "type": "Feature", "properties": { "site_code": "T21" }, "geometry": { "type": "Polygon", "coordinates": [ [ [ -112.137795893, 33.307536076300003 ], [ -112.122795893, 33.307536076300003 ], [ -112.122795893, 33.322536076299997 ], [ -112.137795893, 33.322536076299997 ], [ -112.137795893, 33.307536076300003 ] ] ] } },
{ "type": "Feature", "properties": { "site_code": "V21" }, "geometry": { "type": "Polygon", "coordinates": [ [ [ -112.032795893, 33.307536076300003 ], [ -112.017795893, 33.307536076300003 ], [ -112.017795893, 33.322536076299997 ], [ -112.032795893, 33.322536076299997 ], [ -112.032795893, 33.307536076300003 ] ] ] } },
{ "type": "Feature", "properties": { "site_code": "W20" }, "geometry": { "type": "Polygon", "coordinates": [ [ [ -112.017795893, 33.307536076300003 ], [ -112.002795893, 33.307536076300003 ], [ -112.002795893, 33.322536076299997 ], [ -112.017795893, 33.322536076299997 ], [ -112.017795893, 33.307536076300003 ] ] ] } },
{ "type": "Feature", "properties": { "site_code": "Y20" }, "geometry": { "type": "Polygon", "coordinates": [ [ [ -111.927795893, 33.307536076300003 ], [ -111.912795893, 33.307536076300003 ], [ -111.912795893, 33.322536076299997 ], [ -111.927795893, 33.322536076299997 ], [ -111.927795893, 33.307536076300003 ] ] ] } },
{ "type": "Feature", "properties": { "site_code": "Z21" }, "geometry": { "type": "Polygon", "coordinates": [ [ [ -111.852795893, 33.307536076300003 ], [ -111.837795893, 33.307536076300003 ], [ -111.837795893, 33.322536076299997 ], [ -111.852795893, 33.322536076299997 ], [ -111.852795893, 33.307536076300003 ] ] ] } },
{ "type": "Feature", "properties": { "site_code": "AA20" }, "geometry": { "type": "Polygon", "coordinates": [ [ [ -111.837795893, 33.307536076300003 ], [ -111.822795893, 33.307536076300003 ], [ -111.822795893, 33.322536076299997 ], [ -111.837795893, 33.322536076299997 ], [ -111.837795893, 33.307536076300003 ] ] ] } },
{ "type": "Feature", "properties": { "site_code": "U20" }, "geometry": { "type": "Polygon", "coordinates": [ [ [ -112.062795893, 33.322536076299997 ], [ -112.047795893, 33.322536076299997 ], [ -112.047795893, 33.337536076299997 ], [ -112.062795893, 33.337536076299997 ], [ -112.062795893, 33.322536076299997 ] ] ] } },
{ "type": "Feature", "properties": { "site_code": "V20" }, "geometry": { "type": "Polygon", "coordinates": [ [ [ -112.032795893, 33.322536076299997 ], [ -112.017795893, 33.322536076299997 ], [ -112.017795893, 33.337536076299997 ], [ -112.032795893, 33.337536076299997 ], [ -112.032795893, 33.322536076299997 ] ] ] } },
{ "type": "Feature", "properties": { "site_code": "X20" }, "geometry": { "type": "Polygon", "coordinates": [ [ [ -111.942795893, 33.322536076299997 ], [ -111.927795893, 33.322536076299997 ], [ -111.927795893, 33.337536076299997 ], [ -111.942795893, 33.337536076299997 ], [ -111.942795893, 33.322536076299997 ] ] ] } },
{ "type": "Feature", "properties": { "site_code": "AB20" }, "geometry": { "type": "Polygon", "coordinates": [ [ [ -111.792795893, 33.322536076299997 ], [ -111.777795893, 33.322536076299997 ], [ -111.777795893, 33.337536076299997 ], [ -111.792795893, 33.337536076299997 ], [ -111.792795893, 33.322536076299997 ] ] ] } },
{ "type": "Feature", "properties": { "site_code": "AE20" }, "geometry": { "type": "Polygon", "coordinates": [ [ [ -111.672795893, 33.322536076299997 ], [ -111.657795893, 33.322536076299997 ], [ -111.657795893, 33.337536076299997 ], [ -111.672795893, 33.337536076299997 ], [ -111.672795893, 33.322536076299997 ] ] ] } },
{ "type": "Feature", "properties": { "site_code": "H19" }, "geometry": { "type": "Polygon", "coordinates": [ [ [ -112.632795893, 33.337536076299997 ], [ -112.617795893, 33.337536076299997 ], [ -112.617795893, 33.352536076299998 ], [ -112.632795893, 33.352536076299998 ], [ -112.632795893, 33.337536076299997 ] ] ] } },
{ "type": "Feature", "properties": { "site_code": "T20" }, "geometry": { "type": "Polygon", "coordinates": [ [ [ -112.137795893, 33.337536076299997 ], [ -112.122795893, 33.337536076299997 ], [ -112.122795893, 33.352536076299998 ], [ -112.137795893, 33.352536076299998 ], [ -112.137795893, 33.337536076299997 ] ] ] } },
{ "type": "Feature", "properties": { "site_code": "Z20" }, "geometry": { "type": "Polygon", "coordinates": [ [ [ -111.867795893, 33.337536076299997 ], [ -111.852795893, 33.337536076299997 ], [ -111.852795893, 33.352536076299998 ], [ -111.867795893, 33.352536076299998 ], [ -111.867795893, 33.337536076299997 ] ] ] } },
{ "type": "Feature", "properties": { "site_code": "AB19" }, "geometry": { "type": "Polygon", "coordinates": [ [ [ -111.777795893, 33.337536076299997 ], [ -111.762795893, 33.337536076299997 ], [ -111.762795893, 33.352536076299998 ], [ -111.777795893, 33.352536076299998 ], [ -111.777795893, 33.337536076299997 ] ] ] } },
{ "type": "Feature", "properties": { "site_code": "AC20" }, "geometry": { "type": "Polygon", "coordinates": [ [ [ -111.732795893, 33.337536076299997 ], [ -111.717795893, 33.337536076299997 ], [ -111.717795893, 33.352536076299998 ], [ -111.732795893, 33.352536076299998 ], [ -111.732795893, 33.337536076299997 ] ] ] } },
{ "type": "Feature", "properties": { "site_code": "AG20" }, "geometry": { "type": "Polygon", "coordinates": [ [ [ -111.582795893, 33.337536076299997 ], [ -111.567795893, 33.337536076299997 ], [ -111.567795893, 33.352536076299998 ], [ -111.582795893, 33.352536076299998 ], [ -111.582795893, 33.337536076299997 ] ] ] } },
{ "type": "Feature", "properties": { "site_code": "U19" }, "geometry": { "type": "Polygon", "coordinates": [ [ [ -112.062795893, 33.352536076299998 ], [ -112.047795893, 33.352536076299998 ], [ -112.047795893, 33.367536076299999 ], [ -112.062795893, 33.367536076299999 ], [ -112.062795893, 33.352536076299998 ] ] ] } },
{ "type": "Feature", "properties": { "site_code": "V19" }, "geometry": { "type": "Polygon", "coordinates": [ [ [ -112.032795893, 33.352536076299998 ], [ -112.017795893, 33.352536076299998 ], [ -112.017795893, 33.367536076299999 ], [ -112.032795893, 33.367536076299999 ], [ -112.032795893, 33.352536076299998 ] ] ] } },
{ "type": "Feature", "properties": { "site_code": "W19" }, "geometry": { "type": "Polygon", "coordinates": [ [ [ -112.017795893, 33.352536076299998 ], [ -112.002795893, 33.352536076299998 ], [ -112.002795893, 33.367536076299999 ], [ -112.017795893, 33.367536076299999 ], [ -112.017795893, 33.352536076299998 ] ] ] } },
{ "type": "Feature", "properties": { "site_code": "AA19" }, "geometry": { "type": "Polygon", "coordinates": [ [ [ -111.807795893, 33.352536076299998 ], [ -111.792795893, 33.352536076299998 ], [ -111.792795893, 33.367536076299999 ], [ -111.807795893, 33.367536076299999 ], [ -111.807795893, 33.352536076299998 ] ] ] } },
{ "type": "Feature", "properties": { "site_code": "AF19" }, "geometry": { "type": "Polygon", "coordinates": [ [ [ -111.627795893, 33.352536076299998 ], [ -111.612795893, 33.352536076299998 ], [ -111.612795893, 33.367536076299999 ], [ -111.627795893, 33.367536076299999 ], [ -111.627795893, 33.352536076299998 ] ] ] } },
{ "type": "Feature", "properties": { "site_code": "F19" }, "geometry": { "type": "Polygon", "coordinates": [ [ [ -112.707795893, 33.367536076299999 ], [ -112.692795893, 33.367536076299999 ], [ -112.692795893, 33.382536076299999 ], [ -112.707795893, 33.382536076299999 ], [ -112.707795893, 33.367536076299999 ] ] ] } },
{ "type": "Feature", "properties": { "site_code": "G19" }, "geometry": { "type": "Polygon", "coordinates": [ [ [ -112.692795893, 33.367536076299999 ], [ -112.677795893, 33.367536076299999 ], [ -112.677795893, 33.382536076299999 ], [ -112.692795893, 33.382536076299999 ], [ -112.692795893, 33.367536076299999 ] ] ] } },
{ "type": "Feature", "properties": { "site_code": "S19" }, "geometry": { "type": "Polygon", "coordinates": [ [ [ -112.167795893, 33.367536076299999 ], [ -112.152795893, 33.367536076299999 ], [ -112.152795893, 33.382536076299999 ], [ -112.167795893, 33.382536076299999 ], [ -112.167795893, 33.367536076299999 ] ] ] } },
{ "type": "Feature", "properties": { "site_code": "T19" }, "geometry": { "type": "Polygon", "coordinates": [ [ [ -112.137795893, 33.367536076299999 ], [ -112.122795893, 33.367536076299999 ], [ -112.122795893, 33.382536076299999 ], [ -112.137795893, 33.382536076299999 ], [ -112.137795893, 33.367536076299999 ] ] ] } },
{ "type": "Feature", "properties": { "site_code": "X19" }, "geometry": { "type": "Polygon", "coordinates": [ [ [ -111.942795893, 33.367536076299999 ], [ -111.927795893, 33.367536076299999 ], [ -111.927795893, 33.382536076299999 ], [ -111.942795893, 33.382536076299999 ], [ -111.942795893, 33.367536076299999 ] ] ] } },
{ "type": "Feature", "properties": { "site_code": "Y19" }, "geometry": { "type": "Polygon", "coordinates": [ [ [ -111.927795893, 33.367536076299999 ], [ -111.912795893, 33.367536076299999 ], [ -111.912795893, 33.382536076299999 ], [ -111.927795893, 33.382536076299999 ], [ -111.927795893, 33.367536076299999 ] ] ] } },
{ "type": "Feature", "properties": { "site_code": "Z19" }, "geometry": { "type": "Polygon", "coordinates": [ [ [ -111.852795893, 33.367536076299999 ], [ -111.837795893, 33.367536076299999 ], [ -111.837795893, 33.382536076299999 ], [ -111.852795893, 33.382536076299999 ], [ -111.852795893, 33.367536076299999 ] ] ] } },
{ "type": "Feature", "properties": { "site_code": "AC19" }, "geometry": { "type": "Polygon", "coordinates": [ [ [ -111.732795893, 33.367536076299999 ], [ -111.717795893, 33.367536076299999 ], [ -111.717795893, 33.382536076299999 ], [ -111.732795893, 33.382536076299999 ], [ -111.732795893, 33.367536076299999 ] ] ] } },
{ "type": "Feature", "properties": { "site_code": "AD19" }, "geometry": { "type": "Polygon", "coordinates": [ [ [ -111.687795893, 33.367536076299999 ], [ -111.672795893, 33.367536076299999 ], [ -111.672795893, 33.382536076299999 ], [ -111.687795893, 33.382536076299999 ], [ -111.687795893, 33.367536076299999 ] ] ] } },
{ "type": "Feature", "properties": { "site_code": "AE19" }, "geometry": { "type": "Polygon", "coordinates": [ [ [ -111.657795893, 33.367536076299999 ], [ -111.642795893, 33.367536076299999 ], [ -111.642795893, 33.382536076299999 ], [ -111.657795893, 33.382536076299999 ], [ -111.657795893, 33.367536076299999 ] ] ] } },
{ "type": "Feature", "properties": { "site_code": "S18" }, "geometry": { "type": "Polygon", "coordinates": [ [ [ -112.182795893, 33.382536076299999 ], [ -112.167795893, 33.382536076299999 ], [ -112.167795893, 33.3975360763 ], [ -112.182795893, 33.3975360763 ], [ -112.182795893, 33.382536076299999 ] ] ] } },
{ "type": "Feature", "properties": { "site_code": "V18" }, "geometry": { "type": "Polygon", "coordinates": [ [ [ -112.032795893, 33.382536076299999 ], [ -112.017795893, 33.382536076299999 ], [ -112.017795893, 33.3975360763 ], [ -112.032795893, 33.3975360763 ], [ -112.032795893, 33.382536076299999 ] ] ] } },
{ "type": "Feature", "properties": { "site_code": "W18" }, "geometry": { "type": "Polygon", "coordinates": [ [ [ -112.002795893, 33.382536076299999 ], [ -111.987795893, 33.382536076299999 ], [ -111.987795893, 33.3975360763 ], [ -112.002795893, 33.3975360763 ], [ -112.002795893, 33.382536076299999 ] ] ] } },
{ "type": "Feature", "properties": { "site_code": "AC18" }, "geometry": { "type": "Polygon", "coordinates": [ [ [ -111.747795893, 33.382536076299999 ], [ -111.732795893, 33.382536076299999 ], [ -111.732795893, 33.3975360763 ], [ -111.747795893, 33.3975360763 ], [ -111.747795893, 33.382536076299999 ] ] ] } },
{ "type": "Feature", "properties": { "site_code": "AD18" }, "geometry": { "type": "Polygon", "coordinates": [ [ [ -111.687795893, 33.382536076299999 ], [ -111.672795893, 33.382536076299999 ], [ -111.672795893, 33.3975360763 ], [ -111.687795893, 33.3975360763 ], [ -111.687795893, 33.382536076299999 ] ] ] } },
{ "type": "Feature", "properties": { "site_code": "AE18" }, "geometry": { "type": "Polygon", "coordinates": [ [ [ -111.657795893, 33.382536076299999 ], [ -111.642795893, 33.382536076299999 ], [ -111.642795893, 33.3975360763 ], [ -111.657795893, 33.3975360763 ], [ -111.657795893, 33.382536076299999 ] ] ] } },
{ "type": "Feature", "properties": { "site_code": "K18" }, "geometry": { "type": "Polygon", "coordinates": [ [ [ -112.512795893, 33.3975360763 ], [ -112.497795893, 33.3975360763 ], [ -112.497795893, 33.4125360763 ], [ -112.512795893, 33.4125360763 ], [ -112.512795893, 33.3975360763 ] ] ] } },
{ "type": "Feature", "properties": { "site_code": "L18" }, "geometry": { "type": "Polygon", "coordinates": [ [ [ -112.467795893, 33.3975360763 ], [ -112.452795893, 33.3975360763 ], [ -112.452795893, 33.4125360763 ], [ -112.467795893, 33.4125360763 ], [ -112.467795893, 33.3975360763 ] ] ] } },
{ "type": "Feature", "properties": { "site_code": "P18" }, "geometry": { "type": "Polygon", "coordinates": [ [ [ -112.302795893, 33.3975360763 ], [ -112.287795893, 33.3975360763 ], [ -112.287795893, 33.4125360763 ], [ -112.302795893, 33.4125360763 ], [ -112.302795893, 33.3975360763 ] ] ] } },
{ "type": "Feature", "properties": { "site_code": "T18" }, "geometry": { "type": "Polygon", "coordinates": [ [ [ -112.122795893, 33.3975360763 ], [ -112.107795893, 33.3975360763 ], [ -112.107795893, 33.4125360763 ], [ -112.122795893, 33.4125360763 ], [ -112.122795893, 33.3975360763 ] ] ] } },
{ "type": "Feature", "properties": { "site_code": "U18" }, "geometry": { "type": "Polygon", "coordinates": [ [ [ -112.092795893, 33.3975360763 ], [ -112.077795893, 33.3975360763 ], [ -112.077795893, 33.4125360763 ], [ -112.092795893, 33.4125360763 ], [ -112.092795893, 33.3975360763 ] ] ] } },
{ "type": "Feature", "properties": { "site_code": "Z18" }, "geometry": { "type": "Polygon", "coordinates": [ [ [ -111.882795893, 33.3975360763 ], [ -111.867795893, 33.3975360763 ], [ -111.867795893, 33.4125360763 ], [ -111.882795893, 33.4125360763 ], [ -111.882795893, 33.3975360763 ] ] ] } },
{ "type": "Feature", "properties": { "site_code": "AA18" }, "geometry": { "type": "Polygon", "coordinates": [ [ [ -111.822795893, 33.3975360763 ], [ -111.807795893, 33.3975360763 ], [ -111.807795893, 33.4125360763 ], [ -111.822795893, 33.4125360763 ], [ -111.822795893, 33.3975360763 ] ] ] } },
{ "type": "Feature", "properties": { "site_code": "O17" }, "geometry": { "type": "Polygon", "coordinates": [ [ [ -112.347795893, 33.4125360763 ], [ -112.332795893, 33.4125360763 ], [ -112.332795893, 33.427536076300001 ], [ -112.347795893, 33.427536076300001 ], [ -112.347795893, 33.4125360763 ] ] ] } },
{ "type": "Feature", "properties": { "site_code": "R18" }, "geometry": { "type": "Polygon", "coordinates": [ [ [ -112.212795893, 33.4125360763 ], [ -112.197795893, 33.4125360763 ], [ -112.197795893, 33.427536076300001 ], [ -112.212795893, 33.427536076300001 ], [ -112.212795893, 33.4125360763 ] ] ] } },
{ "type": "Feature", "properties": { "site_code": "S17" }, "geometry": { "type": "Polygon", "coordinates": [ [ [ -112.182795893, 33.4125360763 ], [ -112.167795893, 33.4125360763 ], [ -112.167795893, 33.427536076300001 ], [ -112.182795893, 33.427536076300001 ], [ -112.182795893, 33.4125360763 ] ] ] } },
{ "type": "Feature", "properties": { "site_code": "X17" }, "geometry": { "type": "Polygon", "coordinates": [ [ [ -111.972795893, 33.4125360763 ], [ -111.957795893, 33.4125360763 ], [ -111.957795893, 33.427536076300001 ], [ -111.972795893, 33.427536076300001 ], [ -111.972795893, 33.4125360763 ] ] ] } },
{ "type": "Feature", "properties": { "site_code": "X18" }, "geometry": { "type": "Polygon", "coordinates": [ [ [ -111.942795893, 33.4125360763 ], [ -111.927795893, 33.4125360763 ], [ -111.927795893, 33.427536076300001 ], [ -111.942795893, 33.427536076300001 ], [ -111.942795893, 33.4125360763 ] ] ] } },
{ "type": "Feature", "properties": { "site_code": "Y18" }, "geometry": { "type": "Polygon", "coordinates": [ [ [ -111.897795893, 33.4125360763 ], [ -111.882795893, 33.4125360763 ], [ -111.882795893, 33.427536076300001 ], [ -111.897795893, 33.427536076300001 ], [ -111.897795893, 33.4125360763 ] ] ] } },
{ "type": "Feature", "properties": { "site_code": "AB18" }, "geometry": { "type": "Polygon", "coordinates": [ [ [ -111.792795893, 33.4125360763 ], [ -111.777795893, 33.4125360763 ], [ -111.777795893, 33.427536076300001 ], [ -111.792795893, 33.427536076300001 ], [ -111.792795893, 33.4125360763 ] ] ] } },
{ "type": "Feature", "properties": { "site_code": "I17" }, "geometry": { "type": "Polygon", "coordinates": [ [ [ -112.587795893, 33.427536076300001 ], [ -112.572795893, 33.427536076300001 ], [ -112.572795893, 33.442536076300001 ], [ -112.587795893, 33.442536076300001 ], [ -112.587795893, 33.427536076300001 ] ] ] } },
{ "type": "Feature", "properties": { "site_code": "M17" }, "geometry": { "type": "Polygon", "coordinates": [ [ [ -112.452795893, 33.427536076300001 ], [ -112.437795893, 33.427536076300001 ], [ -112.437795893, 33.442536076300001 ], [ -112.452795893, 33.442536076300001 ], [ -112.452795893, 33.427536076300001 ] ] ] } },
{ "type": "Feature", "properties": { "site_code": "N17" }, "geometry": { "type": "Polygon", "coordinates": [ [ [ -112.392795893, 33.427536076300001 ], [ -112.377795893, 33.427536076300001 ], [ -112.377795893, 33.442536076300001 ], [ -112.392795893, 33.442536076300001 ], [ -112.392795893, 33.427536076300001 ] ] ] } },
{ "type": "Feature", "properties": { "site_code": "V17" }, "geometry": { "type": "Polygon", "coordinates": [ [ [ -112.032795893, 33.427536076300001 ], [ -112.017795893, 33.427536076300001 ], [ -112.017795893, 33.442536076300001 ], [ -112.032795893, 33.442536076300001 ], [ -112.032795893, 33.427536076300001 ] ] ] } },
{ "type": "Feature", "properties": { "site_code": "Z17" }, "geometry": { "type": "Polygon", "coordinates": [ [ [ -111.867795893, 33.427536076300001 ], [ -111.852795893, 33.427536076300001 ], [ -111.852795893, 33.442536076300001 ], [ -111.867795893, 33.442536076300001 ], [ -111.867795893, 33.427536076300001 ] ] ] } },
{ "type": "Feature", "properties": { "site_code": "AC17" }, "geometry": { "type": "Polygon", "coordinates": [ [ [ -111.747795893, 33.427536076300001 ], [ -111.732795893, 33.427536076300001 ], [ -111.732795893, 33.442536076300001 ], [ -111.747795893, 33.442536076300001 ], [ -111.747795893, 33.427536076300001 ] ] ] } },
{ "type": "Feature", "properties": { "site_code": "H16" }, "geometry": { "type": "Polygon", "coordinates": [ [ [ -112.647795893, 33.442536076300001 ], [ -112.632795893, 33.442536076300001 ], [ -112.632795893, 33.457536076300002 ], [ -112.647795893, 33.457536076300002 ], [ -112.647795893, 33.442536076300001 ] ] ] } },
{ "type": "Feature", "properties": { "site_code": "T17" }, "geometry": { "type": "Polygon", "coordinates": [ [ [ -112.137795893, 33.442536076300001 ], [ -112.122795893, 33.442536076300001 ], [ -112.122795893, 33.457536076300002 ], [ -112.137795893, 33.457536076300002 ], [ -112.137795893, 33.442536076300001 ] ] ] } },
{ "type": "Feature", "properties": { "site_code": "U17" }, "geometry": { "type": "Polygon", "coordinates": [ [ [ -112.077795893, 33.442536076300001 ], [ -112.062795893, 33.442536076300001 ], [ -112.062795893, 33.457536076300002 ], [ -112.077795893, 33.457536076300002 ], [ -112.077795893, 33.442536076300001 ] ] ] } },
{ "type": "Feature", "properties": { "site_code": "W17" }, "geometry": { "type": "Polygon", "coordinates": [ [ [ -112.002795893, 33.442536076300001 ], [ -111.987795893, 33.442536076300001 ], [ -111.987795893, 33.457536076300002 ], [ -112.002795893, 33.457536076300002 ], [ -112.002795893, 33.442536076300001 ] ] ] } },
{ "type": "Feature", "properties": { "site_code": "Y17" }, "geometry": { "type": "Polygon", "coordinates": [ [ [ -111.897795893, 33.442536076300001 ], [ -111.882795893, 33.442536076300001 ], [ -111.882795893, 33.457536076300002 ], [ -111.897795893, 33.457536076300002 ], [ -111.897795893, 33.442536076300001 ] ] ] } },
{ "type": "Feature", "properties": { "site_code": "AA17" }, "geometry": { "type": "Polygon", "coordinates": [ [ [ -111.807795893, 33.442536076300001 ], [ -111.792795893, 33.442536076300001 ], [ -111.792795893, 33.457536076300002 ], [ -111.807795893, 33.457536076300002 ], [ -111.807795893, 33.442536076300001 ] ] ] } },
{ "type": "Feature", "properties": { "site_code": "AD17" }, "geometry": { "type": "Polygon", "coordinates": [ [ [ -111.687795893, 33.442536076300001 ], [ -111.672795893, 33.442536076300001 ], [ -111.672795893, 33.457536076300002 ], [ -111.687795893, 33.457536076300002 ], [ -111.687795893, 33.442536076300001 ] ] ] } },
{ "type": "Feature", "properties": { "site_code": "N16" }, "geometry": { "type": "Polygon", "coordinates": [ [ [ -112.407795893, 33.457536076300002 ], [ -112.392795893, 33.457536076300002 ], [ -112.392795893, 33.472536076300003 ], [ -112.407795893, 33.472536076300003 ], [ -112.407795893, 33.457536076300002 ] ] ] } },
{ "type": "Feature", "properties": { "site_code": "O16" }, "geometry": { "type": "Polygon", "coordinates": [ [ [ -112.332795893, 33.457536076300002 ], [ -112.317795893, 33.457536076300002 ], [ -112.317795893, 33.472536076300003 ], [ -112.332795893, 33.472536076300003 ], [ -112.332795893, 33.457536076300002 ] ] ] } },
{ "type": "Feature", "properties": { "site_code": "S16" }, "geometry": { "type": "Polygon", "coordinates": [ [ [ -112.152795893, 33.457536076300002 ], [ -112.137795893, 33.457536076300002 ], [ -112.137795893, 33.472536076300003 ], [ -112.152795893, 33.472536076300003 ], [ -112.152795893, 33.457536076300002 ] ] ] } },
{ "type": "Feature", "properties": { "site_code": "V16" }, "geometry": { "type": "Polygon", "coordinates": [ [ [ -112.047795893, 33.457536076300002 ], [ -112.032795893, 33.457536076300002 ], [ -112.032795893, 33.472536076300003 ], [ -112.047795893, 33.472536076300003 ], [ -112.047795893, 33.457536076300002 ] ] ] } },
{ "type": "Feature", "properties": { "site_code": "Y16" }, "geometry": { "type": "Polygon", "coordinates": [ [ [ -111.912795893, 33.457536076300002 ], [ -111.897795893, 33.457536076300002 ], [ -111.897795893, 33.472536076300003 ], [ -111.912795893, 33.472536076300003 ], [ -111.912795893, 33.457536076300002 ] ] ] } },
{ "type": "Feature", "properties": { "site_code": "AB16" }, "geometry": { "type": "Polygon", "coordinates": [ [ [ -111.777795893, 33.457536076300002 ], [ -111.762795893, 33.457536076300002 ], [ -111.762795893, 33.472536076300003 ], [ -111.777795893, 33.472536076300003 ], [ -111.777795893, 33.457536076300002 ] ] ] } },
{ "type": "Feature", "properties": { "site_code": "AB17" }, "geometry": { "type": "Polygon", "coordinates": [ [ [ -111.777795893, 33.457536076300002 ], [ -111.762795893, 33.457536076300002 ], [ -111.762795893, 33.472536076300003 ], [ -111.777795893, 33.472536076300003 ], [ -111.777795893, 33.457536076300002 ] ] ] } },
{ "type": "Feature", "properties": { "site_code": "J16" }, "geometry": { "type": "Polygon", "coordinates": [ [ [ -112.557795893, 33.472536076300003 ], [ -112.542795893, 33.472536076300003 ], [ -112.542795893, 33.487536076300003 ], [ -112.557795893, 33.487536076300003 ], [ -112.557795893, 33.472536076300003 ] ] ] } },
{ "type": "Feature", "properties": { "site_code": "M16" }, "geometry": { "type": "Polygon", "coordinates": [ [ [ -112.452795893, 33.472536076300003 ], [ -112.437795893, 33.472536076300003 ], [ -112.437795893, 33.487536076300003 ], [ -112.452795893, 33.487536076300003 ], [ -112.452795893, 33.472536076300003 ] ] ] } },
{ "type": "Feature", "properties": { "site_code": "P16" }, "geometry": { "type": "Polygon", "coordinates": [ [ [ -112.317795893, 33.472536076300003 ], [ -112.302795893, 33.472536076300003 ], [ -112.302795893, 33.487536076300003 ], [ -112.317795893, 33.487536076300003 ], [ -112.317795893, 33.472536076300003 ] ] ] } },
{ "type": "Feature", "properties": { "site_code": "Q16" }, "geometry": { "type": "Polygon", "coordinates": [ [ [ -112.272795893, 33.472536076300003 ], [ -112.257795893, 33.472536076300003 ], [ -112.257795893, 33.487536076300003 ], [ -112.272795893, 33.487536076300003 ], [ -112.272795893, 33.472536076300003 ] ] ] } },
{ "type": "Feature", "properties": { "site_code": "R16" }, "geometry": { "type": "Polygon", "coordinates": [ [ [ -112.227795893, 33.472536076300003 ], [ -112.212795893, 33.472536076300003 ], [ -112.212795893, 33.487536076300003 ], [ -112.227795893, 33.487536076300003 ], [ -112.227795893, 33.472536076300003 ] ] ] } },
{ "type": "Feature", "properties": { "site_code": "T16" }, "geometry": { "type": "Polygon", "coordinates": [ [ [ -112.137795893, 33.472536076300003 ], [ -112.122795893, 33.472536076300003 ], [ -112.122795893, 33.487536076300003 ], [ -112.137795893, 33.487536076300003 ], [ -112.137795893, 33.472536076300003 ] ] ] } },
{ "type": "Feature", "properties": { "site_code": "U16" }, "geometry": { "type": "Polygon", "coordinates": [ [ [ -112.077795893, 33.472536076300003 ], [ -112.062795893, 33.472536076300003 ], [ -112.062795893, 33.487536076300003 ], [ -112.077795893, 33.487536076300003 ], [ -112.077795893, 33.472536076300003 ] ] ] } },
{ "type": "Feature", "properties": { "site_code": "W16" }, "geometry": { "type": "Polygon", "coordinates": [ [ [ -111.972795893, 33.472536076300003 ], [ -111.957795893, 33.472536076300003 ], [ -111.957795893, 33.487536076300003 ], [ -111.972795893, 33.487536076300003 ], [ -111.972795893, 33.472536076300003 ] ] ] } },
{ "type": "Feature", "properties": { "site_code": "X16" }, "geometry": { "type": "Polygon", "coordinates": [ [ [ -111.942795893, 33.472536076300003 ], [ -111.927795893, 33.472536076300003 ], [ -111.927795893, 33.487536076300003 ], [ -111.942795893, 33.487536076300003 ], [ -111.942795893, 33.472536076300003 ] ] ] } },
{ "type": "Feature", "properties": { "site_code": "AC16" }, "geometry": { "type": "Polygon", "coordinates": [ [ [ -111.732795893, 33.472536076300003 ], [ -111.717795893, 33.472536076300003 ], [ -111.717795893, 33.487536076300003 ], [ -111.732795893, 33.487536076300003 ], [ -111.732795893, 33.472536076300003 ] ] ] } },
{ "type": "Feature", "properties": { "site_code": "G15" }, "geometry": { "type": "Polygon", "coordinates": [ [ [ -112.677795893, 33.487536076300003 ], [ -112.662795893, 33.487536076300003 ], [ -112.662795893, 33.502536076299997 ], [ -112.677795893, 33.502536076299997 ], [ -112.677795893, 33.487536076300003 ] ] ] } },
{ "type": "Feature", "properties": { "site_code": "T15" }, "geometry": { "type": "Polygon", "coordinates": [ [ [ -112.122795893, 33.487536076300003 ], [ -112.107795893, 33.487536076300003 ], [ -112.107795893, 33.502536076299997 ], [ -112.122795893, 33.502536076299997 ], [ -112.122795893, 33.487536076300003 ] ] ] } },
{ "type": "Feature", "properties": { "site_code": "F15" }, "geometry": { "type": "Polygon", "coordinates": [ [ [ -112.722795893, 33.502536076299997 ], [ -112.707795893, 33.502536076299997 ], [ -112.707795893, 33.517536076299997 ], [ -112.722795893, 33.517536076299997 ], [ -112.722795893, 33.502536076299997 ] ] ] } },
{ "type": "Feature", "properties": { "site_code": "Q15" }, "geometry": { "type": "Polygon", "coordinates": [ [ [ -112.257795893, 33.502536076299997 ], [ -112.242795893, 33.502536076299997 ], [ -112.242795893, 33.517536076299997 ], [ -112.257795893, 33.517536076299997 ], [ -112.257795893, 33.502536076299997 ] ] ] } },
{ "type": "Feature", "properties": { "site_code": "S15" }, "geometry": { "type": "Polygon", "coordinates": [ [ [ -112.182795893, 33.502536076299997 ], [ -112.167795893, 33.502536076299997 ], [ -112.167795893, 33.517536076299997 ], [ -112.182795893, 33.517536076299997 ], [ -112.182795893, 33.502536076299997 ] ] ] } },
{ "type": "Feature", "properties": { "site_code": "U15" }, "geometry": { "type": "Polygon", "coordinates": [ [ [ -112.077795893, 33.502536076299997 ], [ -112.062795893, 33.502536076299997 ], [ -112.062795893, 33.517536076299997 ], [ -112.077795893, 33.517536076299997 ], [ -112.077795893, 33.502536076299997 ] ] ] } },
{ "type": "Feature", "properties": { "site_code": "X15" }, "geometry": { "type": "Polygon", "coordinates": [ [ [ -111.972795893, 33.502536076299997 ], [ -111.957795893, 33.502536076299997 ], [ -111.957795893, 33.517536076299997 ], [ -111.972795893, 33.517536076299997 ], [ -111.972795893, 33.502536076299997 ] ] ] } },
{ "type": "Feature", "properties": { "site_code": "Y15" }, "geometry": { "type": "Polygon", "coordinates": [ [ [ -111.927795893, 33.502536076299997 ], [ -111.912795893, 33.502536076299997 ], [ -111.912795893, 33.517536076299997 ], [ -111.927795893, 33.517536076299997 ], [ -111.927795893, 33.502536076299997 ] ] ] } },
{ "type": "Feature", "properties": { "site_code": "K15" }, "geometry": { "type": "Polygon", "coordinates": [ [ [ -112.542795893, 33.517536076299997 ], [ -112.527795893, 33.517536076299997 ], [ -112.527795893, 33.532536076299998 ], [ -112.542795893, 33.532536076299998 ], [ -112.542795893, 33.517536076299997 ] ] ] } },
{ "type": "Feature", "properties": { "site_code": "R15" }, "geometry": { "type": "Polygon", "coordinates": [ [ [ -112.212795893, 33.517536076299997 ], [ -112.197795893, 33.517536076299997 ], [ -112.197795893, 33.532536076299998 ], [ -112.212795893, 33.532536076299998 ], [ -112.212795893, 33.517536076299997 ] ] ] } },
{ "type": "Feature", "properties": { "site_code": "V15" }, "geometry": { "type": "Polygon", "coordinates": [ [ [ -112.032795893, 33.517536076299997 ], [ -112.017795893, 33.517536076299997 ], [ -112.017795893, 33.532536076299998 ], [ -112.032795893, 33.532536076299998 ], [ -112.032795893, 33.517536076299997 ] ] ] } },
{ "type": "Feature", "properties": { "site_code": "W15" }, "geometry": { "type": "Polygon", "coordinates": [ [ [ -112.002795893, 33.517536076299997 ], [ -111.987795893, 33.517536076299997 ], [ -111.987795893, 33.532536076299998 ], [ -112.002795893, 33.532536076299998 ], [ -112.002795893, 33.517536076299997 ] ] ] } },
{ "type": "Feature", "properties": { "site_code": "Y14" }, "geometry": { "type": "Polygon", "coordinates": [ [ [ -111.912795893, 33.517536076299997 ], [ -111.897795893, 33.517536076299997 ], [ -111.897795893, 33.532536076299998 ], [ -111.912795893, 33.532536076299998 ], [ -111.912795893, 33.517536076299997 ] ] ] } },
{ "type": "Feature", "properties": { "site_code": "I14" }, "geometry": { "type": "Polygon", "coordinates": [ [ [ -112.602795893, 33.532536076299998 ], [ -112.587795893, 33.532536076299998 ], [ -112.587795893, 33.547536076299998 ], [ -112.602795893, 33.547536076299998 ], [ -112.602795893, 33.532536076299998 ] ] ] } },
{ "type": "Feature", "properties": { "site_code": "R14" }, "geometry": { "type": "Polygon", "coordinates": [ [ [ -112.212795893, 33.532536076299998 ], [ -112.197795893, 33.532536076299998 ], [ -112.197795893, 33.547536076299998 ], [ -112.212795893, 33.547536076299998 ], [ -112.212795893, 33.532536076299998 ] ] ] } },
{ "type": "Feature", "properties": { "site_code": "AF14" }, "geometry": { "type": "Polygon", "coordinates": [ [ [ -111.597795893, 33.532536076299998 ], [ -111.582795893, 33.532536076299998 ], [ -111.582795893, 33.547536076299998 ], [ -111.597795893, 33.547536076299998 ], [ -111.597795893, 33.532536076299998 ] ] ] } },
{ "type": "Feature", "properties": { "site_code": "L14" }, "geometry": { "type": "Polygon", "coordinates": [ [ [ -112.482795893, 33.547536076299998 ], [ -112.467795893, 33.547536076299998 ], [ -112.467795893, 33.562536076299999 ], [ -112.482795893, 33.562536076299999 ], [ -112.482795893, 33.547536076299998 ] ] ] } },
{ "type": "Feature", "properties": { "site_code": "Q14" }, "geometry": { "type": "Polygon", "coordinates": [ [ [ -112.272795893, 33.547536076299998 ], [ -112.257795893, 33.547536076299998 ], [ -112.257795893, 33.562536076299999 ], [ -112.272795893, 33.562536076299999 ], [ -112.272795893, 33.547536076299998 ] ] ] } },
{ "type": "Feature", "properties": { "site_code": "S14" }, "geometry": { "type": "Polygon", "coordinates": [ [ [ -112.167795893, 33.547536076299998 ], [ -112.152795893, 33.547536076299998 ], [ -112.152795893, 33.562536076299999 ], [ -112.167795893, 33.562536076299999 ], [ -112.167795893, 33.547536076299998 ] ] ] } },
{ "type": "Feature", "properties": { "site_code": "T14" }, "geometry": { "type": "Polygon", "coordinates": [ [ [ -112.107795893, 33.547536076299998 ], [ -112.092795893, 33.547536076299998 ], [ -112.092795893, 33.562536076299999 ], [ -112.107795893, 33.562536076299999 ], [ -112.107795893, 33.547536076299998 ] ] ] } },
{ "type": "Feature", "properties": { "site_code": "U14" }, "geometry": { "type": "Polygon", "coordinates": [ [ [ -112.077795893, 33.547536076299998 ], [ -112.062795893, 33.547536076299998 ], [ -112.062795893, 33.562536076299999 ], [ -112.077795893, 33.562536076299999 ], [ -112.077795893, 33.547536076299998 ] ] ] } },
{ "type": "Feature", "properties": { "site_code": "V14" }, "geometry": { "type": "Polygon", "coordinates": [ [ [ -112.062795893, 33.547536076299998 ], [ -112.047795893, 33.547536076299998 ], [ -112.047795893, 33.562536076299999 ], [ -112.062795893, 33.562536076299999 ], [ -112.062795893, 33.547536076299998 ] ] ] } },
{ "type": "Feature", "properties": { "site_code": "W14" }, "geometry": { "type": "Polygon", "coordinates": [ [ [ -111.987795893, 33.547536076299998 ], [ -111.972795893, 33.547536076299998 ], [ -111.972795893, 33.562536076299999 ], [ -111.987795893, 33.562536076299999 ], [ -111.987795893, 33.547536076299998 ] ] ] } },
{ "type": "Feature", "properties": { "site_code": "X14" }, "geometry": { "type": "Polygon", "coordinates": [ [ [ -111.957795893, 33.547536076299998 ], [ -111.942795893, 33.547536076299998 ], [ -111.942795893, 33.562536076299999 ], [ -111.957795893, 33.562536076299999 ], [ -111.957795893, 33.547536076299998 ] ] ] } },
{ "type": "Feature", "properties": { "site_code": "T13" }, "geometry": { "type": "Polygon", "coordinates": [ [ [ -112.152795893, 33.562536076299999 ], [ -112.137795893, 33.562536076299999 ], [ -112.137795893, 33.577536076299999 ], [ -112.152795893, 33.577536076299999 ], [ -112.152795893, 33.562536076299999 ] ] ] } },
{ "type": "Feature", "properties": { "site_code": "W13" }, "geometry": { "type": "Polygon", "coordinates": [ [ [ -112.017795893, 33.562536076299999 ], [ -112.002795893, 33.562536076299999 ], [ -112.002795893, 33.577536076299999 ], [ -112.017795893, 33.577536076299999 ], [ -112.017795893, 33.562536076299999 ] ] ] } },
{ "type": "Feature", "properties": { "site_code": "H13" }, "geometry": { "type": "Polygon", "coordinates": [ [ [ -112.662795893, 33.577536076299999 ], [ -112.647795893, 33.577536076299999 ], [ -112.647795893, 33.5925360763 ], [ -112.662795893, 33.5925360763 ], [ -112.662795893, 33.577536076299999 ] ] ] } },
{ "type": "Feature", "properties": { "site_code": "L13" }, "geometry": { "type": "Polygon", "coordinates": [ [ [ -112.452795893, 33.577536076299999 ], [ -112.437795893, 33.577536076299999 ], [ -112.437795893, 33.5925360763 ], [ -112.452795893, 33.5925360763 ], [ -112.452795893, 33.577536076299999 ] ] ] } },
{ "type": "Feature", "properties": { "site_code": "P13" }, "geometry": { "type": "Polygon", "coordinates": [ [ [ -112.302795893, 33.577536076299999 ], [ -112.287795893, 33.577536076299999 ], [ -112.287795893, 33.5925360763 ], [ -112.302795893, 33.5925360763 ], [ -112.302795893, 33.577536076299999 ] ] ] } },
{ "type": "Feature", "properties": { "site_code": "R13" }, "geometry": { "type": "Polygon", "coordinates": [ [ [ -112.227795893, 33.577536076299999 ], [ -112.212795893, 33.577536076299999 ], [ -112.212795893, 33.5925360763 ], [ -112.227795893, 33.5925360763 ], [ -112.227795893, 33.577536076299999 ] ] ] } },
{ "type": "Feature", "properties": { "site_code": "S13" }, "geometry": { "type": "Polygon", "coordinates": [ [ [ -112.167795893, 33.577536076299999 ], [ -112.152795893, 33.577536076299999 ], [ -112.152795893, 33.5925360763 ], [ -112.167795893, 33.5925360763 ], [ -112.167795893, 33.577536076299999 ] ] ] } },
{ "type": "Feature", "properties": { "site_code": "V13" }, "geometry": { "type": "Polygon", "coordinates": [ [ [ -112.032795893, 33.577536076299999 ], [ -112.017795893, 33.577536076299999 ], [ -112.017795893, 33.5925360763 ], [ -112.032795893, 33.5925360763 ], [ -112.032795893, 33.577536076299999 ] ] ] } },
{ "type": "Feature", "properties": { "site_code": "X13" }, "geometry": { "type": "Polygon", "coordinates": [ [ [ -111.942795893, 33.577536076299999 ], [ -111.927795893, 33.577536076299999 ], [ -111.927795893, 33.5925360763 ], [ -111.942795893, 33.5925360763 ], [ -111.942795893, 33.577536076299999 ] ] ] } },
{ "type": "Feature", "properties": { "site_code": "Y13" }, "geometry": { "type": "Polygon", "coordinates": [ [ [ -111.912795893, 33.577536076299999 ], [ -111.897795893, 33.577536076299999 ], [ -111.897795893, 33.5925360763 ], [ -111.912795893, 33.5925360763 ], [ -111.912795893, 33.577536076299999 ] ] ] } },
{ "type": "Feature", "properties": { "site_code": "F12" }, "geometry": { "type": "Polygon", "coordinates": [ [ [ -112.722795893, 33.5925360763 ], [ -112.707795893, 33.5925360763 ], [ -112.707795893, 33.607536076300001 ], [ -112.722795893, 33.607536076300001 ], [ -112.722795893, 33.5925360763 ] ] ] } },
{ "type": "Feature", "properties": { "site_code": "M12" }, "geometry": { "type": "Polygon", "coordinates": [ [ [ -112.437795893, 33.5925360763 ], [ -112.422795893, 33.5925360763 ], [ -112.422795893, 33.607536076300001 ], [ -112.437795893, 33.607536076300001 ], [ -112.437795893, 33.5925360763 ] ] ] } },
{ "type": "Feature", "properties": { "site_code": "Q13" }, "geometry": { "type": "Polygon", "coordinates": [ [ [ -112.242795893, 33.5925360763 ], [ -112.227795893, 33.5925360763 ], [ -112.227795893, 33.607536076300001 ], [ -112.242795893, 33.607536076300001 ], [ -112.242795893, 33.5925360763 ] ] ] } },
{ "type": "Feature", "properties": { "site_code": "R12" }, "geometry": { "type": "Polygon", "coordinates": [ [ [ -112.197795893, 33.5925360763 ], [ -112.182795893, 33.5925360763 ], [ -112.182795893, 33.607536076300001 ], [ -112.197795893, 33.607536076300001 ], [ -112.197795893, 33.5925360763 ] ] ] } },
{ "type": "Feature", "properties": { "site_code": "U13" }, "geometry": { "type": "Polygon", "coordinates": [ [ [ -112.092795893, 33.5925360763 ], [ -112.077795893, 33.5925360763 ], [ -112.077795893, 33.607536076300001 ], [ -112.092795893, 33.607536076300001 ], [ -112.092795893, 33.5925360763 ] ] ] } },
{ "type": "Feature", "properties": { "site_code": "K12" }, "geometry": { "type": "Polygon", "coordinates": [ [ [ -112.512795893, 33.607536076300001 ], [ -112.497795893, 33.607536076300001 ], [ -112.497795893, 33.622536076300001 ], [ -112.512795893, 33.622536076300001 ], [ -112.512795893, 33.607536076300001 ] ] ] } },
{ "type": "Feature", "properties": { "site_code": "N12" }, "geometry": { "type": "Polygon", "coordinates": [ [ [ -112.377795893, 33.607536076300001 ], [ -112.362795893, 33.607536076300001 ], [ -112.362795893, 33.622536076300001 ], [ -112.377795893, 33.622536076300001 ], [ -112.377795893, 33.607536076300001 ] ] ] } },
{ "type": "Feature", "properties": { "site_code": "Q12" }, "geometry": { "type": "Polygon", "coordinates": [ [ [ -112.242795893, 33.607536076300001 ], [ -112.227795893, 33.607536076300001 ], [ -112.227795893, 33.622536076300001 ], [ -112.242795893, 33.622536076300001 ], [ -112.242795893, 33.607536076300001 ] ] ] } },
{ "type": "Feature", "properties": { "site_code": "V12" }, "geometry": { "type": "Polygon", "coordinates": [ [ [ -112.047795893, 33.607536076300001 ], [ -112.032795893, 33.607536076300001 ], [ -112.032795893, 33.622536076300001 ], [ -112.047795893, 33.622536076300001 ], [ -112.047795893, 33.607536076300001 ] ] ] } },
{ "type": "Feature", "properties": { "site_code": "AF12" }, "geometry": { "type": "Polygon", "coordinates": [ [ [ -111.627795893, 33.607536076300001 ], [ -111.612795893, 33.607536076300001 ], [ -111.612795893, 33.622536076300001 ], [ -111.627795893, 33.622536076300001 ], [ -111.627795893, 33.607536076300001 ] ] ] } },
{ "type": "Feature", "properties": { "site_code": "E12" }, "geometry": { "type": "Polygon", "coordinates": [ [ [ -112.782795893, 33.622536076300001 ], [ -112.767795893, 33.622536076300001 ], [ -112.767795893, 33.637536076300002 ], [ -112.782795893, 33.637536076300002 ], [ -112.782795893, 33.622536076300001 ] ] ] } },
{ "type": "Feature", "properties": { "site_code": "G12" }, "geometry": { "type": "Polygon", "coordinates": [ [ [ -112.692795893, 33.622536076300001 ], [ -112.677795893, 33.622536076300001 ], [ -112.677795893, 33.637536076300002 ], [ -112.692795893, 33.637536076300002 ], [ -112.692795893, 33.622536076300001 ] ] ] } },
{ "type": "Feature", "properties": { "site_code": "J11" }, "geometry": { "type": "Polygon", "coordinates": [ [ [ -112.557795893, 33.622536076300001 ], [ -112.542795893, 33.622536076300001 ], [ -112.542795893, 33.637536076300002 ], [ -112.557795893, 33.637536076300002 ], [ -112.557795893, 33.622536076300001 ] ] ] } },
{ "type": "Feature", "properties": { "site_code": "S11" }, "geometry": { "type": "Polygon", "coordinates": [ [ [ -112.167795893, 33.622536076300001 ], [ -112.152795893, 33.622536076300001 ], [ -112.152795893, 33.637536076300002 ], [ -112.167795893, 33.637536076300002 ], [ -112.167795893, 33.622536076300001 ] ] ] } },
{ "type": "Feature", "properties": { "site_code": "S12" }, "geometry": { "type": "Polygon", "coordinates": [ [ [ -112.167795893, 33.622536076300001 ], [ -112.152795893, 33.622536076300001 ], [ -112.152795893, 33.637536076300002 ], [ -112.167795893, 33.637536076300002 ], [ -112.167795893, 33.622536076300001 ] ] ] } },
{ "type": "Feature", "properties": { "site_code": "T12" }, "geometry": { "type": "Polygon", "coordinates": [ [ [ -112.137795893, 33.622536076300001 ], [ -112.122795893, 33.622536076300001 ], [ -112.122795893, 33.637536076300002 ], [ -112.137795893, 33.637536076300002 ], [ -112.137795893, 33.622536076300001 ] ] ] } },
{ "type": "Feature", "properties": { "site_code": "U12" }, "geometry": { "type": "Polygon", "coordinates": [ [ [ -112.077795893, 33.622536076300001 ], [ -112.062795893, 33.622536076300001 ], [ -112.062795893, 33.637536076300002 ], [ -112.077795893, 33.637536076300002 ], [ -112.077795893, 33.622536076300001 ] ] ] } },
{ "type": "Feature", "properties": { "site_code": "W12" }, "geometry": { "type": "Polygon", "coordinates": [ [ [ -112.017795893, 33.622536076300001 ], [ -112.002795893, 33.622536076300001 ], [ -112.002795893, 33.637536076300002 ], [ -112.017795893, 33.637536076300002 ], [ -112.017795893, 33.622536076300001 ] ] ] } },
{ "type": "Feature", "properties": { "site_code": "X12" }, "geometry": { "type": "Polygon", "coordinates": [ [ [ -111.972795893, 33.622536076300001 ], [ -111.957795893, 33.622536076300001 ], [ -111.957795893, 33.637536076300002 ], [ -111.972795893, 33.637536076300002 ], [ -111.972795893, 33.622536076300001 ] ] ] } },
{ "type": "Feature", "properties": { "site_code": "R11" }, "geometry": { "type": "Polygon", "coordinates": [ [ [ -112.227795893, 33.637536076300002 ], [ -112.212795893, 33.637536076300002 ], [ -112.212795893, 33.652536076300002 ], [ -112.227795893, 33.652536076300002 ], [ -112.227795893, 33.637536076300002 ] ] ] } },
{ "type": "Feature", "properties": { "site_code": "T11" }, "geometry": { "type": "Polygon", "coordinates": [ [ [ -112.137795893, 33.637536076300002 ], [ -112.122795893, 33.637536076300002 ], [ -112.122795893, 33.652536076300002 ], [ -112.137795893, 33.652536076300002 ], [ -112.137795893, 33.637536076300002 ] ] ] } },
{ "type": "Feature", "properties": { "site_code": "U11" }, "geometry": { "type": "Polygon", "coordinates": [ [ [ -112.077795893, 33.637536076300002 ], [ -112.062795893, 33.637536076300002 ], [ -112.062795893, 33.652536076300002 ], [ -112.077795893, 33.652536076300002 ], [ -112.077795893, 33.637536076300002 ] ] ] } },
{ "type": "Feature", "properties": { "site_code": "W11" }, "geometry": { "type": "Polygon", "coordinates": [ [ [ -111.987795893, 33.637536076300002 ], [ -111.972795893, 33.637536076300002 ], [ -111.972795893, 33.652536076300002 ], [ -111.987795893, 33.652536076300002 ], [ -111.987795893, 33.637536076300002 ] ] ] } },
{ "type": "Feature", "properties": { "site_code": "AA11" }, "geometry": { "type": "Polygon", "coordinates": [ [ [ -111.822795893, 33.637536076300002 ], [ -111.807795893, 33.637536076300002 ], [ -111.807795893, 33.652536076300002 ], [ -111.822795893, 33.652536076300002 ], [ -111.822795893, 33.637536076300002 ] ] ] } },
{ "type": "Feature", "properties": { "site_code": "AC11" }, "geometry": { "type": "Polygon", "coordinates": [ [ [ -111.762795893, 33.637536076300002 ], [ -111.747795893, 33.637536076300002 ], [ -111.747795893, 33.652536076300002 ], [ -111.762795893, 33.652536076300002 ], [ -111.762795893, 33.637536076300002 ] ] ] } },
{ "type": "Feature", "properties": { "site_code": "I11" }, "geometry": { "type": "Polygon", "coordinates": [ [ [ -112.617795893, 33.652536076300002 ], [ -112.602795893, 33.652536076300002 ], [ -112.602795893, 33.667536076300003 ], [ -112.617795893, 33.667536076300003 ], [ -112.617795893, 33.652536076300002 ] ] ] } },
{ "type": "Feature", "properties": { "site_code": "O11" }, "geometry": { "type": "Polygon", "coordinates": [ [ [ -112.347795893, 33.652536076300002 ], [ -112.332795893, 33.652536076300002 ], [ -112.332795893, 33.667536076300003 ], [ -112.347795893, 33.667536076300003 ], [ -112.347795893, 33.652536076300002 ] ] ] } },
{ "type": "Feature", "properties": { "site_code": "V11" }, "geometry": { "type": "Polygon", "coordinates": [ [ [ -112.047795893, 33.652536076300002 ], [ -112.032795893, 33.652536076300002 ], [ -112.032795893, 33.667536076300003 ], [ -112.047795893, 33.667536076300003 ], [ -112.047795893, 33.652536076300002 ] ] ] } },
{ "type": "Feature", "properties": { "site_code": "X11" }, "geometry": { "type": "Polygon", "coordinates": [ [ [ -111.942795893, 33.652536076300002 ], [ -111.927795893, 33.652536076300002 ], [ -111.927795893, 33.667536076300003 ], [ -111.942795893, 33.667536076300003 ], [ -111.942795893, 33.652536076300002 ] ] ] } },
{ "type": "Feature", "properties": { "site_code": "AB11" }, "geometry": { "type": "Polygon", "coordinates": [ [ [ -111.762795893, 33.652536076300002 ], [ -111.747795893, 33.652536076300002 ], [ -111.747795893, 33.667536076300003 ], [ -111.762795893, 33.667536076300003 ], [ -111.762795893, 33.652536076300002 ] ] ] } },
{ "type": "Feature", "properties": { "site_code": "G10" }, "geometry": { "type": "Polygon", "coordinates": [ [ [ -112.677795893, 33.667536076300003 ], [ -112.662795893, 33.667536076300003 ], [ -112.662795893, 33.682536076300003 ], [ -112.677795893, 33.682536076300003 ], [ -112.677795893, 33.667536076300003 ] ] ] } },
{ "type": "Feature", "properties": { "site_code": "N10" }, "geometry": { "type": "Polygon", "coordinates": [ [ [ -112.362795893, 33.667536076300003 ], [ -112.347795893, 33.667536076300003 ], [ -112.347795893, 33.682536076300003 ], [ -112.362795893, 33.682536076300003 ], [ -112.362795893, 33.667536076300003 ] ] ] } },
{ "type": "Feature", "properties": { "site_code": "Y10" }, "geometry": { "type": "Polygon", "coordinates": [ [ [ -111.927795893, 33.667536076300003 ], [ -111.912795893, 33.667536076300003 ], [ -111.912795893, 33.682536076300003 ], [ -111.927795893, 33.682536076300003 ], [ -111.927795893, 33.667536076300003 ] ] ] } },
{ "type": "Feature", "properties": { "site_code": "Z11" }, "geometry": { "type": "Polygon", "coordinates": [ [ [ -111.852795893, 33.667536076300003 ], [ -111.837795893, 33.667536076300003 ], [ -111.837795893, 33.682536076300003 ], [ -111.852795893, 33.682536076300003 ], [ -111.852795893, 33.667536076300003 ] ] ] } },
{ "type": "Feature", "properties": { "site_code": "AD10" }, "geometry": { "type": "Polygon", "coordinates": [ [ [ -111.717795893, 33.667536076300003 ], [ -111.702795893, 33.667536076300003 ], [ -111.702795893, 33.682536076300003 ], [ -111.717795893, 33.682536076300003 ], [ -111.717795893, 33.667536076300003 ] ] ] } },
{ "type": "Feature", "properties": { "site_code": "I10" }, "geometry": { "type": "Polygon", "coordinates": [ [ [ -112.602795893, 33.682536076300003 ], [ -112.587795893, 33.682536076300003 ], [ -112.587795893, 33.697536076299997 ], [ -112.602795893, 33.697536076299997 ], [ -112.602795893, 33.682536076300003 ] ] ] } },
{ "type": "Feature", "properties": { "site_code": "R10" }, "geometry": { "type": "Polygon", "coordinates": [ [ [ -112.212795893, 33.682536076300003 ], [ -112.197795893, 33.682536076300003 ], [ -112.197795893, 33.697536076299997 ], [ -112.212795893, 33.697536076299997 ], [ -112.212795893, 33.682536076300003 ] ] ] } },
{ "type": "Feature", "properties": { "site_code": "Z10" }, "geometry": { "type": "Polygon", "coordinates": [ [ [ -111.867795893, 33.682536076300003 ], [ -111.852795893, 33.682536076300003 ], [ -111.852795893, 33.697536076299997 ], [ -111.867795893, 33.697536076299997 ], [ -111.867795893, 33.682536076300003 ] ] ] } },
{ "type": "Feature", "properties": { "site_code": "AB10" }, "geometry": { "type": "Polygon", "coordinates": [ [ [ -111.777795893, 33.682536076300003 ], [ -111.762795893, 33.682536076300003 ], [ -111.762795893, 33.697536076299997 ], [ -111.777795893, 33.697536076299997 ], [ -111.777795893, 33.682536076300003 ] ] ] } },
{ "type": "Feature", "properties": { "site_code": "J9" }, "geometry": { "type": "Polygon", "coordinates": [ [ [ -112.572795893, 33.697536076299997 ], [ -112.557795893, 33.697536076299997 ], [ -112.557795893, 33.712536076299997 ], [ -112.572795893, 33.712536076299997 ], [ -112.572795893, 33.697536076299997 ] ] ] } },
{ "type": "Feature", "properties": { "site_code": "K9" }, "geometry": { "type": "Polygon", "coordinates": [ [ [ -112.527795893, 33.697536076299997 ], [ -112.512795893, 33.697536076299997 ], [ -112.512795893, 33.712536076299997 ], [ -112.527795893, 33.712536076299997 ], [ -112.527795893, 33.697536076299997 ] ] ] } },
{ "type": "Feature", "properties": { "site_code": "O9" }, "geometry": { "type": "Polygon", "coordinates": [ [ [ -112.362795893, 33.697536076299997 ], [ -112.347795893, 33.697536076299997 ], [ -112.347795893, 33.712536076299997 ], [ -112.362795893, 33.712536076299997 ], [ -112.362795893, 33.697536076299997 ] ] ] } },
{ "type": "Feature", "properties": { "site_code": "M9" }, "geometry": { "type": "Polygon", "coordinates": [ [ [ -112.452795893, 33.712536076299997 ], [ -112.437795893, 33.712536076299997 ], [ -112.437795893, 33.727536076299998 ], [ -112.452795893, 33.727536076299998 ], [ -112.452795893, 33.712536076299997 ] ] ] } },
{ "type": "Feature", "properties": { "site_code": "Q9" }, "geometry": { "type": "Polygon", "coordinates": [ [ [ -112.272795893, 33.712536076299997 ], [ -112.257795893, 33.712536076299997 ], [ -112.257795893, 33.727536076299998 ], [ -112.272795893, 33.727536076299998 ], [ -112.272795893, 33.712536076299997 ] ] ] } },
{ "type": "Feature", "properties": { "site_code": "S9" }, "geometry": { "type": "Polygon", "coordinates": [ [ [ -112.182795893, 33.712536076299997 ], [ -112.167795893, 33.712536076299997 ], [ -112.167795893, 33.727536076299998 ], [ -112.182795893, 33.727536076299998 ], [ -112.182795893, 33.712536076299997 ] ] ] } },
{ "type": "Feature", "properties": { "site_code": "AA9" }, "geometry": { "type": "Polygon", "coordinates": [ [ [ -111.837795893, 33.712536076299997 ], [ -111.822795893, 33.712536076299997 ], [ -111.822795893, 33.727536076299998 ], [ -111.837795893, 33.727536076299998 ], [ -111.837795893, 33.712536076299997 ] ] ] } },
{ "type": "Feature", "properties": { "site_code": "L9" }, "geometry": { "type": "Polygon", "coordinates": [ [ [ -112.467795893, 33.727536076299998 ], [ -112.452795893, 33.727536076299998 ], [ -112.452795893, 33.742536076299999 ], [ -112.467795893, 33.742536076299999 ], [ -112.467795893, 33.727536076299998 ] ] ] } },
{ "type": "Feature", "properties": { "site_code": "V9" }, "geometry": { "type": "Polygon", "coordinates": [ [ [ -112.047795893, 33.727536076299998 ], [ -112.032795893, 33.727536076299998 ], [ -112.032795893, 33.742536076299999 ], [ -112.047795893, 33.742536076299999 ], [ -112.047795893, 33.727536076299998 ] ] ] } },
{ "type": "Feature", "properties": { "site_code": "W9" }, "geometry": { "type": "Polygon", "coordinates": [ [ [ -111.987795893, 33.727536076299998 ], [ -111.972795893, 33.727536076299998 ], [ -111.972795893, 33.742536076299999 ], [ -111.987795893, 33.742536076299999 ], [ -111.987795893, 33.727536076299998 ] ] ] } },
{ "type": "Feature", "properties": { "site_code": "AE9" }, "geometry": { "type": "Polygon", "coordinates": [ [ [ -111.672795893, 33.727536076299998 ], [ -111.657795893, 33.727536076299998 ], [ -111.657795893, 33.742536076299999 ], [ -111.672795893, 33.742536076299999 ], [ -111.672795893, 33.727536076299998 ] ] ] } },
{ "type": "Feature", "properties": { "site_code": "E8" }, "geometry": { "type": "Polygon", "coordinates": [ [ [ -112.782795893, 33.742536076299999 ], [ -112.767795893, 33.742536076299999 ], [ -112.767795893, 33.757536076299999 ], [ -112.782795893, 33.757536076299999 ], [ -112.782795893, 33.742536076299999 ] ] ] } },
{ "type": "Feature", "properties": { "site_code": "F8" }, "geometry": { "type": "Polygon", "coordinates": [ [ [ -112.752795893, 33.742536076299999 ], [ -112.737795893, 33.742536076299999 ], [ -112.737795893, 33.757536076299999 ], [ -112.752795893, 33.757536076299999 ], [ -112.752795893, 33.742536076299999 ] ] ] } },
{ "type": "Feature", "properties": { "site_code": "P8" }, "geometry": { "type": "Polygon", "coordinates": [ [ [ -112.317795893, 33.742536076299999 ], [ -112.302795893, 33.742536076299999 ], [ -112.302795893, 33.757536076299999 ], [ -112.317795893, 33.757536076299999 ], [ -112.317795893, 33.742536076299999 ] ] ] } },
{ "type": "Feature", "properties": { "site_code": "AC9" }, "geometry": { "type": "Polygon", "coordinates": [ [ [ -111.732795893, 33.742536076299999 ], [ -111.717795893, 33.742536076299999 ], [ -111.717795893, 33.757536076299999 ], [ -111.732795893, 33.757536076299999 ], [ -111.732795893, 33.742536076299999 ] ] ] } },
{ "type": "Feature", "properties": { "site_code": "H8" }, "geometry": { "type": "Polygon", "coordinates": [ [ [ -112.647795893, 33.757536076299999 ], [ -112.632795893, 33.757536076299999 ], [ -112.632795893, 33.7725360763 ], [ -112.647795893, 33.7725360763 ], [ -112.647795893, 33.757536076299999 ] ] ] } },
{ "type": "Feature", "properties": { "site_code": "T8" }, "geometry": { "type": "Polygon", "coordinates": [ [ [ -112.152795893, 33.757536076299999 ], [ -112.137795893, 33.757536076299999 ], [ -112.137795893, 33.7725360763 ], [ -112.152795893, 33.7725360763 ], [ -112.152795893, 33.757536076299999 ] ] ] } },
{ "type": "Feature", "properties": { "site_code": "U8" }, "geometry": { "type": "Polygon", "coordinates": [ [ [ -112.092795893, 33.757536076299999 ], [ -112.077795893, 33.757536076299999 ], [ -112.077795893, 33.7725360763 ], [ -112.092795893, 33.7725360763 ], [ -112.092795893, 33.757536076299999 ] ] ] } },
{ "type": "Feature", "properties": { "site_code": "AF8" }, "geometry": { "type": "Polygon", "coordinates": [ [ [ -111.612795893, 33.757536076299999 ], [ -111.597795893, 33.757536076299999 ], [ -111.597795893, 33.7725360763 ], [ -111.612795893, 33.7725360763 ], [ -111.612795893, 33.757536076299999 ] ] ] } },
{ "type": "Feature", "properties": { "site_code": "G7" }, "geometry": { "type": "Polygon", "coordinates": [ [ [ -112.677795893, 33.7725360763 ], [ -112.662795893, 33.7725360763 ], [ -112.662795893, 33.7875360763 ], [ -112.677795893, 33.7875360763 ], [ -112.677795893, 33.7725360763 ] ] ] } },
{ "type": "Feature", "properties": { "site_code": "L7" }, "geometry": { "type": "Polygon", "coordinates": [ [ [ -112.452795893, 33.7725360763 ], [ -112.437795893, 33.7725360763 ], [ -112.437795893, 33.7875360763 ], [ -112.452795893, 33.7875360763 ], [ -112.452795893, 33.7725360763 ] ] ] } },
{ "type": "Feature", "properties": { "site_code": "M7" }, "geometry": { "type": "Polygon", "coordinates": [ [ [ -112.437795893, 33.7725360763 ], [ -112.422795893, 33.7725360763 ], [ -112.422795893, 33.7875360763 ], [ -112.437795893, 33.7875360763 ], [ -112.437795893, 33.7725360763 ] ] ] } },
{ "type": "Feature", "properties": { "site_code": "Q7" }, "geometry": { "type": "Polygon", "coordinates": [ [ [ -112.257795893, 33.7725360763 ], [ -112.242795893, 33.7725360763 ], [ -112.242795893, 33.7875360763 ], [ -112.257795893, 33.7875360763 ], [ -112.257795893, 33.7725360763 ] ] ] } },
{ "type": "Feature", "properties": { "site_code": "X8" }, "geometry": { "type": "Polygon", "coordinates": [ [ [ -111.957795893, 33.7725360763 ], [ -111.942795893, 33.7725360763 ], [ -111.942795893, 33.7875360763 ], [ -111.957795893, 33.7875360763 ], [ -111.957795893, 33.7725360763 ] ] ] } },
{ "type": "Feature", "properties": { "site_code": "J7" }, "geometry": { "type": "Polygon", "coordinates": [ [ [ -112.572795893, 33.7875360763 ], [ -112.557795893, 33.7875360763 ], [ -112.557795893, 33.802536076300001 ], [ -112.572795893, 33.802536076300001 ], [ -112.572795893, 33.7875360763 ] ] ] } },
{ "type": "Feature", "properties": { "site_code": "O7" }, "geometry": { "type": "Polygon", "coordinates": [ [ [ -112.332795893, 33.7875360763 ], [ -112.317795893, 33.7875360763 ], [ -112.317795893, 33.802536076300001 ], [ -112.332795893, 33.802536076300001 ], [ -112.332795893, 33.7875360763 ] ] ] } },
{ "type": "Feature", "properties": { "site_code": "R7" }, "geometry": { "type": "Polygon", "coordinates": [ [ [ -112.242795893, 33.7875360763 ], [ -112.227795893, 33.7875360763 ], [ -112.227795893, 33.802536076300001 ], [ -112.242795893, 33.802536076300001 ], [ -112.242795893, 33.7875360763 ] ] ] } },
{ "type": "Feature", "properties": { "site_code": "V7" }, "geometry": { "type": "Polygon", "coordinates": [ [ [ -112.032795893, 33.7875360763 ], [ -112.017795893, 33.7875360763 ], [ -112.017795893, 33.802536076300001 ], [ -112.032795893, 33.802536076300001 ], [ -112.032795893, 33.7875360763 ] ] ] } },
{ "type": "Feature", "properties": { "site_code": "H7" }, "geometry": { "type": "Polygon", "coordinates": [ [ [ -112.647795893, 33.802536076300001 ], [ -112.632795893, 33.802536076300001 ], [ -112.632795893, 33.817536076300001 ], [ -112.647795893, 33.817536076300001 ], [ -112.647795893, 33.802536076300001 ] ] ] } },
{ "type": "Feature", "properties": { "site_code": "AC7" }, "geometry": { "type": "Polygon", "coordinates": [ [ [ -111.762795893, 33.802536076300001 ], [ -111.747795893, 33.802536076300001 ], [ -111.747795893, 33.817536076300001 ], [ -111.762795893, 33.817536076300001 ], [ -111.762795893, 33.802536076300001 ] ] ] } },
{ "type": "Feature", "properties": { "site_code": "AD7" }, "geometry": { "type": "Polygon", "coordinates": [ [ [ -111.717795893, 33.802536076300001 ], [ -111.702795893, 33.802536076300001 ], [ -111.702795893, 33.817536076300001 ], [ -111.717795893, 33.817536076300001 ], [ -111.717795893, 33.802536076300001 ] ] ] } },
{ "type": "Feature", "properties": { "site_code": "K6" }, "geometry": { "type": "Polygon", "coordinates": [ [ [ -112.527795893, 33.817536076300001 ], [ -112.512795893, 33.817536076300001 ], [ -112.512795893, 33.832536076300002 ], [ -112.527795893, 33.832536076300002 ], [ -112.527795893, 33.817536076300001 ] ] ] } },
{ "type": "Feature", "properties": { "site_code": "U6" }, "geometry": { "type": "Polygon", "coordinates": [ [ [ -112.107795893, 33.817536076300001 ], [ -112.092795893, 33.817536076300001 ], [ -112.092795893, 33.832536076300002 ], [ -112.107795893, 33.832536076300002 ], [ -112.107795893, 33.817536076300001 ] ] ] } },
{ "type": "Feature", "properties": { "site_code": "W6" }, "geometry": { "type": "Polygon", "coordinates": [ [ [ -112.017795893, 33.817536076300001 ], [ -112.002795893, 33.817536076300001 ], [ -112.002795893, 33.832536076300002 ], [ -112.017795893, 33.832536076300002 ], [ -112.017795893, 33.817536076300001 ] ] ] } },
{ "type": "Feature", "properties": { "site_code": "X6" }, "geometry": { "type": "Polygon", "coordinates": [ [ [ -111.972795893, 33.817536076300001 ], [ -111.957795893, 33.817536076300001 ], [ -111.957795893, 33.832536076300002 ], [ -111.972795893, 33.832536076300002 ], [ -111.972795893, 33.817536076300001 ] ] ] } },
{ "type": "Feature", "properties": { "site_code": "Y6" }, "geometry": { "type": "Polygon", "coordinates": [ [ [ -111.927795893, 33.817536076300001 ], [ -111.912795893, 33.817536076300001 ], [ -111.912795893, 33.832536076300002 ], [ -111.927795893, 33.832536076300002 ], [ -111.927795893, 33.817536076300001 ] ] ] } },
{ "type": "Feature", "properties": { "site_code": "AE7" }, "geometry": { "type": "Polygon", "coordinates": [ [ [ -111.642795893, 33.817536076300001 ], [ -111.627795893, 33.817536076300001 ], [ -111.627795893, 33.832536076300002 ], [ -111.642795893, 33.832536076300002 ], [ -111.642795893, 33.817536076300001 ] ] ] } }
]
}
